[{"OBJECT_NAME":"KOSEN-1","OBJECT_ID":"2021-102H","EPOCH":"2026-03-09T22:29:54.100608","MEAN_MOTION":15.25323573,"ECCENTRICITY":0.00138659,"INCLINATION":97.3334,"RA_OF_ASC_NODE":113.0569,"ARG_OF_PERICENTER":191.9191,"MEAN_ANOMALY":168.1721,"EPHEMERIS_TYPE":0,"CLASSIFICATION_TYPE":"U","NORAD_CAT_ID":49402,"ELEMENT_SET_NO":999,"REV_AT_EPOCH":23888,"BSTAR":0.00040411561,"MEAN_MOTION_DOT":0.00010142,"MEAN_MOTION_DDOT":0},{"OBJECT_NAME":"STARLINK-31138","OBJECT_ID":"2024-012V","EPOCH":"2026-03-09T07:01:41.885760","MEAN_MOTION":15.27617781,"ECCENTRICITY":4.278e-5,"INCLINATION":42.9963,"RA_OF_ASC_NODE":167.6203,"ARG_OF_PERICENTER":78.5636,"MEAN_ANOMALY":281.5264,"EPHEMERIS_TYPE":0,"CLASSIFICATION_TYPE":"U","NORAD_CAT_ID":58806,"ELEMENT_SET_NO":999,"REV_AT_EPOCH":12117,"BSTAR":-0.00027713333,"MEAN_MOTION_DOT":-7.888e-5,"MEAN_MOTION_DDOT":0}]
